{
    "links": {
        "self": "http://www.neowsapp.com/rest/v1/neo/3701884?api_key=iIulBulltgU6a56xZRHN4H3l9WmuAYTsLGpBGhQ2"
    },
    "id": "3701884",
    "neo_reference_id": "3701884",
    "name": "(2014 XP7)",
    "designation": "2014 XP7",
    "nasa_jpl_url": "http://ssd.jpl.nasa.gov/sbdb.cgi?sstr=3701884",
    "absolute_magnitude_h": 24.0,
    "estimated_diameter": {
        "kilometers": {
            "estimated_diameter_min": 0.0421264611,
            "estimated_diameter_max": 0.0941976306
        },
        "meters": {
            "estimated_diameter_min": 42.1264610556,
            "estimated_diameter_max": 94.1976305719
        },
        "miles": {
            "estimated_diameter_min": 0.0261761612,
            "estimated_diameter_max": 0.0585316759
        },
        "feet": {
            "estimated_diameter_min": 138.2101784897,
            "estimated_diameter_max": 309.0473542854
        }
    },
    "is_potentially_hazardous_asteroid": false,
    "close_approach_data": [
        {
            "close_approach_date": "2014-11-13",
            "close_approach_date_full": "2014-Nov-13 20:27",
            "epoch_date_close_approach": 1415910420000,
            "relative_velocity": {
                "kilometers_per_second": "6.6240593686",
                "kilometers_per_hour": "23846.6137271348",
                "miles_per_hour": "14817.3584017299"
            },
            "miss_distance": {
                "astronomical": "0.1285569697",
                "lunar": "50.0086612133",
                "kilometers": "19231848.840774539",
                "miles": "11950116.7353810782"
            },
            "orbiting_body": "Earth"
        }
    ],
    "orbital_data": {
        "orbit_id": "5",
        "orbit_determination_date": "2017-04-06 08:36:55",
        "first_observation_date": "2014-12-13",
        "last_observation_date": "2014-12-24",
        "data_arc_in_days": 11,
        "observations_used": 12,
        "orbit_uncertainty": "8",
        "minimum_orbit_intersection": ".122747",
        "jupiter_tisserand_invariant": "3.209",
        "epoch_osculation": "2457005.5",
        "eccentricity": ".562651034966631",
        "semi_major_axis": "2.521794262009159",
        "inclination": "5.527491954822626",
        "ascending_node_longitude": "254.870897297334",
        "orbital_period": "1462.725744472534",
        "perihelion_distance": "1.102904110516794",
        "perihelion_argument": "148.7054336720321",
        "aphelion_distance": "3.940684413501524",
        "perihelion_time": "2456970.184678790619",
        "mean_anomaly": "8.691660540890881",
        "mean_motion": ".2461158568927887",
        "equinox": "J2000",
        "orbit_class": {
            "orbit_class_type": "AMO",
            "orbit_class_description": "Near-Earth asteroid orbits similar to that of 1221 Amor",
            "orbit_class_range": "1.017 AU < q (perihelion) < 1.3 AU"
        }
    },
    "is_sentry_object": false
}